[
    {
        "Altitude(m)": 624792.7883505208,
        "Argument of Periapsis(deg)": 0.0,
        "Eccentricity": 0.0,
        "Inclination(deg)": 60.0,
        "Latitude(deg)": -59.14713692255298,
        "Longitude(deg)": -145.97375759534478,
        "Mean Anomaly(deg)": 261.8182,
        "RAAN(deg)": 60.0,
        "Satellite Name": "Test1 280",
        "Satellite Number": 280,
        "Semi-Major Axis(m)": 6980739.136638005,
        "Time(s)": 0
    },
    {
        "Altitude(m)": 624842.1809609949,
        "Argument of Periapsis(deg)": 0.00010418945913296404,
        "Eccentricity": 0.0,
        "Inclination(deg)": 60.0,
        "Latitude(deg)": -59.289222395738726,
        "Longitude(deg)": -144.84425277138126,
        "Mean Anomaly(deg)": 262.4383061454619,
        "RAAN(deg)": 59.99957995086026,
        "Satellite Name": "Test1 280",
        "Satellite Number": 280,
        "Semi-Major Axis(m)": 6980739.136638005,
        "Time(s)": 10
    }
]